[{"OBJECT_NAME":"STARLINK-11516 [DTC]","OBJECT_ID":"2025-004M","EPOCH":"2025-08-28T04:01:39.998784","MEAN_MOTION":15.70852369,"ECCENTRICITY":0.00016551,"INCLINATION":42.9996,"RA_OF_ASC_NODE":157.1167,"ARG_OF_PERICENTER":261.771,"MEAN_ANOMALY":98.297,"EPHEMERIS_TYPE":0,"CLASSIFICATION_TYPE":"U","NORAD_CAT_ID":62522,"ELEMENT_SET_NO":999,"REV_AT_EPOCH":3677,"BSTAR":0.0008971279,"MEAN_MOTION_DOT":0.00116351,"MEAN_MOTION_DDOT":0},{"OBJECT_NAME":"STARLINK-11527 [DTC]","OBJECT_ID":"2025-004N","EPOCH":"2025-08-28T00:00:02.000160","MEAN_MOTION":15.70862944,"ECCENTRICITY":0.00016206,"INCLINATION":43,"RA_OF_ASC_NODE":157.9804,"ARG_OF_PERICENTER":269.5666,"MEAN_ANOMALY":280.5311,"EPHEMERIS_TYPE":0,"CLASSIFICATION_TYPE":"U","NORAD_CAT_ID":62523,"ELEMENT_SET_NO":999,"REV_AT_EPOCH":600,"BSTAR":-0.00061123093,"MEAN_MOTION_DOT":-0.00078221,"MEAN_MOTION_DDOT":0},{"OBJECT_NAME":"STARLINK-32748","OBJECT_ID":"2025-004P","EPOCH":"2025-08-28T16:31:11.877888","MEAN_MOTION":15.27581632,"ECCENTRICITY":4.665e-5,"INCLINATION":42.9975,"RA_OF_ASC_NODE":229.6667,"ARG_OF_PERICENTER":31.8529,"MEAN_ANOMALY":328.235,"EPHEMERIS_TYPE":0,"CLASSIFICATION_TYPE":"U","NORAD_CAT_ID":62524,"ELEMENT_SET_NO":999,"REV_AT_EPOCH":3694,"BSTAR":0.00097421957,"MEAN_MOTION_DOT":0.00026645,"MEAN_MOTION_DDOT":0},{"OBJECT_NAME":"STARLINK-32777","OBJECT_ID":"2025-004Q","EPOCH":"2025-08-28T11:11:55.237920","MEAN_MOTION":15.27589706,"ECCENTRICITY":0.00015272,"INCLINATION":42.9999,"RA_OF_ASC_NODE":231.4379,"ARG_OF_PERICENTER":274.6954,"MEAN_ANOMALY":85.3724,"EPHEMERIS_TYPE":0,"CLASSIFICATION_TYPE":"U","NORAD_CAT_ID":62525,"ELEMENT_SET_NO":999,"REV_AT_EPOCH":3690,"BSTAR":0.00090446814,"MEAN_MOTION_DOT":0.00024718,"MEAN_MOTION_DDOT":0},{"OBJECT_NAME":"STARLINK-32741","OBJECT_ID":"2025-004R","EPOCH":"2025-08-28T07:47:39.019488","MEAN_MOTION":15.27593298,"ECCENTRICITY":0.00021299,"INCLINATION":43.003,"RA_OF_ASC_NODE":228.629,"ARG_OF_PERICENTER":258.1665,"MEAN_ANOMALY":101.8948,"EPHEMERIS_TYPE":0,"CLASSIFICATION_TYPE":"U","NORAD_CAT_ID":62526,"ELEMENT_SET_NO":999,"REV_AT_EPOCH":3692,"BSTAR":0.0012459317,"MEAN_MOTION_DOT":0.00034197,"MEAN_MOTION_DDOT":0},{"OBJECT_NAME":"STARLINK-32754","OBJECT_ID":"2025-004S","EPOCH":"2025-08-28T10:36:45.643680","MEAN_MOTION":15.27603774,"ECCENTRICITY":0.0001902,"INCLINATION":43.0042,"RA_OF_ASC_NODE":231.2608,"ARG_OF_PERICENTER":282.1335,"MEAN_ANOMALY":77.9303,"EPHEMERIS_TYPE":0,"CLASSIFICATION_TYPE":"U","NORAD_CAT_ID":62527,"ELEMENT_SET_NO":999,"REV_AT_EPOCH":3595,"BSTAR":0.00098650554,"MEAN_MOTION_DOT":0.00027004,"MEAN_MOTION_DDOT":0},{"OBJECT_NAME":"STARLINK-32786","OBJECT_ID":"2025-004T","EPOCH":"2025-08-28T08:14:29.931936","MEAN_MOTION":15.27586657,"ECCENTRICITY":0.0001714,"INCLINATION":43.0005,"RA_OF_ASC_NODE":231.3684,"ARG_OF_PERICENTER":265.4951,"MEAN_ANOMALY":94.5704,"EPHEMERIS_TYPE":0,"CLASSIFICATION_TYPE":"U","NORAD_CAT_ID":62528,"ELEMENT_SET_NO":999,"REV_AT_EPOCH":3594,"BSTAR":0.0012025445,"MEAN_MOTION_DOT":0.00032984,"MEAN_MOTION_DDOT":0},{"OBJECT_NAME":"STARLINK-32789","OBJECT_ID":"2025-004U","EPOCH":"2025-08-28T09:11:51.645696","MEAN_MOTION":15.27592615,"ECCENTRICITY":0.00018314,"INCLINATION":43.0026,"RA_OF_ASC_NODE":231.6698,"ARG_OF_PERICENTER":281.5331,"MEAN_ANOMALY":78.5315,"EPHEMERIS_TYPE":0,"CLASSIFICATION_TYPE":"U","NORAD_CAT_ID":62529,"ELEMENT_SET_NO":999,"REV_AT_EPOCH":3689,"BSTAR":0.00097180214,"MEAN_MOTION_DOT":0.00026587,"MEAN_MOTION_DDOT":0},{"OBJECT_NAME":"STARLINK-32791","OBJECT_ID":"2025-004V","EPOCH":"2025-08-28T16:42:17.599392","MEAN_MOTION":15.27596696,"ECCENTRICITY":0.00013718,"INCLINATION":43.0024,"RA_OF_ASC_NODE":229.7165,"ARG_OF_PERICENTER":276.6228,"MEAN_ANOMALY":83.4468,"EPHEMERIS_TYPE":0,"CLASSIFICATION_TYPE":"U","NORAD_CAT_ID":62530,"ELEMENT_SET_NO":999,"REV_AT_EPOCH":3694,"BSTAR":0.0011332097,"MEAN_MOTION_DOT":0.00031069,"MEAN_MOTION_DDOT":0},{"OBJECT_NAME":"STARLINK-32785","OBJECT_ID":"2025-004W","EPOCH":"2025-08-28T07:48:48.430656","MEAN_MOTION":15.27586029,"ECCENTRICITY":0.00017688,"INCLINATION":42.9979,"RA_OF_ASC_NODE":232.1012,"ARG_OF_PERICENTER":257.4506,"MEAN_ANOMALY":102.6148,"EPHEMERIS_TYPE":0,"CLASSIFICATION_TYPE":"U","NORAD_CAT_ID":62531,"ELEMENT_SET_NO":999,"REV_AT_EPOCH":3688,"BSTAR":0.00098398398,"MEAN_MOTION_DOT":0.00026919,"MEAN_MOTION_DDOT":0},{"OBJECT_NAME":"STARLINK-11538 [DTC]","OBJECT_ID":"2025-006A","EPOCH":"2025-08-28T22:49:57.578304","MEAN_MOTION":15.70854373,"ECCENTRICITY":0.00013417,"INCLINATION":42.9994,"RA_OF_ASC_NODE":221.3044,"ARG_OF_PERICENTER":276.4059,"MEAN_ANOMALY":83.6656,"EPHEMERIS_TYPE":0,"CLASSIFICATION_TYPE":"U","NORAD_CAT_ID":62554,"ELEMENT_SET_NO":999,"REV_AT_EPOCH":3629,"BSTAR":0.0016661375,"MEAN_MOTION_DOT":0.00219205,"MEAN_MOTION_DDOT":0},{"OBJECT_NAME":"STARLINK-11534 [DTC]","OBJECT_ID":"2025-006B","EPOCH":"2025-08-28T07:42:00.991584","MEAN_MOTION":15.70915092,"ECCENTRICITY":0.00017047,"INCLINATION":43.0005,"RA_OF_ASC_NODE":225.179,"ARG_OF_PERICENTER":335.3428,"MEAN_ANOMALY":24.7358,"EPHEMERIS_TYPE":0,"CLASSIFICATION_TYPE":"U","NORAD_CAT_ID":62555,"ELEMENT_SET_NO":999,"REV_AT_EPOCH":3619,"BSTAR":0.0019919099,"MEAN_MOTION_DOT":0.00264266,"MEAN_MOTION_DDOT":0},{"OBJECT_NAME":"STARLINK-11515 [DTC]","OBJECT_ID":"2025-006C","EPOCH":"2025-08-28T20:55:38.804160","MEAN_MOTION":15.70861713,"ECCENTRICITY":0.00023388,"INCLINATION":43.0024,"RA_OF_ASC_NODE":222.4542,"ARG_OF_PERICENTER":261.6155,"MEAN_ANOMALY":98.4448,"EPHEMERIS_TYPE":0,"CLASSIFICATION_TYPE":"U","NORAD_CAT_ID":62556,"ELEMENT_SET_NO":999,"REV_AT_EPOCH":3627,"BSTAR":0.0015383397,"MEAN_MOTION_DOT":0.00202003,"MEAN_MOTION_DDOT":0},{"OBJECT_NAME":"STARLINK-11478 [DTC]","OBJECT_ID":"2025-006D","EPOCH":"2025-08-28T21:56:37.272192","MEAN_MOTION":15.7090571,"ECCENTRICITY":0.00022286,"INCLINATION":42.9998,"RA_OF_ASC_NODE":221.9005,"ARG_OF_PERICENTER":244.1617,"MEAN_ANOMALY":115.9021,"EPHEMERIS_TYPE":0,"CLASSIFICATION_TYPE":"U","NORAD_CAT_ID":62557,"ELEMENT_SET_NO":999,"REV_AT_EPOCH":3628,"BSTAR":0.0019327615,"MEAN_MOTION_DOT":0.00256053,"MEAN_MOTION_DDOT":0},{"OBJECT_NAME":"STARLINK-11358 [DTC]","OBJECT_ID":"2025-006E","EPOCH":"2025-08-28T21:48:58.887360","MEAN_MOTION":15.70848303,"ECCENTRICITY":0.00015322,"INCLINATION":42.9997,"RA_OF_ASC_NODE":221.8565,"ARG_OF_PERICENTER":265.0197,"MEAN_ANOMALY":95.0496,"EPHEMERIS_TYPE":0,"CLASSIFICATION_TYPE":"U","NORAD_CAT_ID":62558,"ELEMENT_SET_NO":999,"REV_AT_EPOCH":3628,"BSTAR":0.0023119032,"MEAN_MOTION_DOT":0.00307551,"MEAN_MOTION_DDOT":0},{"OBJECT_NAME":"STARLINK-11517 [DTC]","OBJECT_ID":"2025-006F","EPOCH":"2025-08-28T08:20:13.026336","MEAN_MOTION":15.70991225,"ECCENTRICITY":0.00026708,"INCLINATION":42.9997,"RA_OF_ASC_NODE":225.3894,"ARG_OF_PERICENTER":306.0278,"MEAN_ANOMALY":54.0341,"EPHEMERIS_TYPE":0,"CLASSIFICATION_TYPE":"U","NORAD_CAT_ID":62559,"ELEMENT_SET_NO":999,"REV_AT_EPOCH":3619,"BSTAR":0.0020831025,"MEAN_MOTION_DOT":0.00277735,"MEAN_MOTION_DDOT":0}]
