STARLINK-11516 [DTC]    
1 62522U 25004M   25240.16782406  .00116351  00000+0  89713-3 0  9992
2 62522  42.9996 157.1167 0001655 261.7710  98.2970 15.70852369 36771
STARLINK-11527 [DTC]    
1 62523U 25004N   25240.00002315 -.00078221  00000+0 -61123-3 0  9990
2 62523  43.0000 157.9804 0001620 269.5666 280.5311 15.70862944  6002
STARLINK-32748          
1 62524U 25004P   25240.68833192  .00026645  00000+0  97422-3 0  9992
2 62524  42.9975 229.6667 0000466  31.8529 328.2350 15.27581632 36944
STARLINK-32777          
1 62525U 25004Q   25240.46661155  .00024718  00000+0  90447-3 0  9996
2 62525  42.9999 231.4379 0001527 274.6954  85.3724 15.27589706 36902
STARLINK-32741          
1 62526U 25004R   25240.32475717  .00034197  00000+0  12459-2 0  9997
2 62526  43.0030 228.6290 0002129 258.1665 101.8948 15.27593298 36921
STARLINK-32754          
1 62527U 25004S   25240.44219495  .00027004  00000+0  98651-3 0  9998
2 62527  43.0042 231.2608 0001902 282.1335  77.9303 15.27603774 35958
STARLINK-32786          
1 62528U 25004T   25240.34340199  .00032984  00000+0  12025-2 0  9997
2 62528  43.0005 231.3684 0001714 265.4951  94.5704 15.27586657 35941
STARLINK-32789          
1 62529U 25004U   25240.38323664  .00026587  00000+0  97180-3 0  9998
2 62529  43.0026 231.6698 0001831 281.5331  78.5315 15.27592615 36890
STARLINK-32791          
1 62530U 25004V   25240.69603703  .00031069  00000+0  11332-2 0  9994
2 62530  43.0024 229.7165 0001371 276.6228  83.4468 15.27596696 36949
STARLINK-32785          
1 62531U 25004W   25240.32556054  .00026919  00000+0  98398-3 0  9997
2 62531  42.9979 232.1012 0001768 257.4506 102.6148 15.27586029 36883
STARLINK-11538 [DTC]    
1 62554U 25006A   25240.95136086  .00219205  00000+0  16661-2 0  9996
2 62554  42.9994 221.3044 0001341 276.4059  83.6656 15.70854373 36296
STARLINK-11534 [DTC]    
1 62555U 25006B   25240.32084481  .00264266  00000+0  19919-2 0  9995
2 62555  43.0005 225.1790 0001704 335.3428  24.7358 15.70915092 36190
STARLINK-11515 [DTC]    
1 62556U 25006C   25240.87197690  .00202003  00000+0  15383-2 0  9995
2 62556  43.0024 222.4542 0002338 261.6155  98.4448 15.70861713 36276
STARLINK-11478 [DTC]    
1 62557U 25006D   25240.91432028  .00256053  00000+0  19328-2 0  9995
2 62557  42.9998 221.9005 0002228 244.1617 115.9021 15.70905710 36289
STARLINK-11358 [DTC]    
1 62558U 25006E   25240.90901490  .00307551  00000+0  23119-2 0  9992
2 62558  42.9997 221.8565 0001532 265.0197  95.0496 15.70848303 36289
STARLINK-11517 [DTC]    
1 62559U 25006F   25240.34737299  .00277735  00000+0  20831-2 0  9993
2 62559  42.9997 225.3894 0002670 306.0278  54.0341 15.70991225 36190
